STARLINK-32472          
1 61846U 24202B   26068.44285263 -.00000219  00000+0  15647-5 0  9991
2 61846  43.0028 228.6805 0001696 270.1435  89.9223 15.27577811 75413
COSMOS 2588             
1 64095U 25109A   26068.81179522  .00009169  00000+0  32611-3 0  9998
2 64095  72.9704  73.5401 0005019 308.6780  51.3966 15.29122656 44425
